{"type": "FeatureCollection", "features": [ {"type": "Feature", "properties": {"norad_id": 41549, "name": "GSAT0211 (GALILEO 14)", "group": "gnss", "lat": -28.27389903183712, "lon": 69.0441191356656, "alt_km": 23236.466244994564, "timestamp": "2025-12-03T19:33:07.219110+00:00", "meta": {"OBJECT_NAME": "GSAT0211 (GALILEO 14)", "OBJECT_ID": "2016-030A", "EPOCH": "2025-12-01T16:54:04.942368", "MEAN_MOTION": 1.70472896, "ECCENTRICITY": 0.00038995, "INCLINATION": 55.1563, "RA_OF_ASC_NODE": 227.1275, "ARG_OF_PERICENTER": 10.5053, "MEAN_ANOMALY": 349.5828, "EPHEMERIS_TYPE": 0, "CLASSIFICATION_TYPE": "U", "NORAD_CAT_ID": 41549, "ELEMENT_SET_NO": 999, "REV_AT_EPOCH": 5930, "BSTAR": 0, "MEAN_MOTION_DOT": 3.3e-07, "MEAN_MOTION_DDOT": 0}, "tle": {"line1": "1 41549U 16030A   25335.70422387  .00000033  00000+0  00000+0 0  9998", "line2": "2 41549  55.1563 227.1275 0003899  10.5053 349.5828  1.70472896 59309"}}, "geometry": {"type": "Point", "coordinates": [69.0441191356656, -28.27389903183712]}}, {"type": "Feature", "properties": {"norad_id": 41550, "name": "GSAT0210 (GALILEO 13)", "group": "gnss", "lat": 43.644188834477966, "lon": -91.36384460048853, "alt_km": 23220.609724185982, "timestamp": "2025-12-03T19:33:07.219121+00:00", "meta": {"OBJECT_NAME": "GSAT0210 (GALILEO 13)", "OBJECT_ID": "2016-030B", "EPOCH": "2025-12-03T03:14:10.364352", "MEAN_MOTION": 1.70473449, "ECCENTRICITY": 0.0001223, "INCLINATION": 55.1551, "RA_OF_ASC_NODE": 227.0861, "ARG_OF_PERICENTER": 241.4534, "MEAN_ANOMALY": 118.6225, "EPHEMERIS_TYPE": 0, "CLASSIFICATION_TYPE": "U", "NORAD_CAT_ID": 41550, "ELEMENT_SET_NO": 999, "REV_AT_EPOCH": 5932, "BSTAR": 0, "MEAN_MOTION_DOT": 3.9e-07, "MEAN_MOTION_DDOT": 0}, "tle": {"line1": "1 41550U 16030B   25337.13484218  .00000039  00000+0  00000+0 0  9996", "line2": "2 41550  55.1551 227.0861 0001223 241.4534 118.6225  1.70473449 59329"}}, "geometry": {"type": "Point", "coordinates": [-91.36384460048853, 43.644188834477966]}}, {"type": "Feature", "properties": {"norad_id": 41586, "name": "BEIDOU-2 G7 (C03)", "group": "gnss", "lat": 1.3193081566091887, "lon": 116.66577672170774, "alt_km": 35772.70299081575, "timestamp": "2025-12-03T19:33:07.219133+00:00", "meta": {"OBJECT_NAME": "BEIDOU-2 G7 (C03)", "OBJECT_ID": "2016-037A", "EPOCH": "2025-12-03T10:51:22.384224", "MEAN_MOTION": 1.002716, "ECCENTRICITY": 0.0004402, "INCLINATION": 1.7326, "RA_OF_ASC_NODE": 67.6893, "ARG_OF_PERICENTER": 4.5231, "MEAN_ANOMALY": 273.6588, "EPHEMERIS_TYPE": 0, "CLASSIFICATION_TYPE": "U", "NORAD_CAT_ID": 41586, "ELEMENT_SET_NO": 999, "REV_AT_EPOCH": 492, "BSTAR": 0, "MEAN_MOTION_DOT": -3.36e-06, "MEAN_MOTION_DDOT": 0}, "tle": {"line1": "1 41586U 16037A   25337.45234241 -.00000336  00000+0  00000+0 0  9997", "line2": "2 41586   1.7326  67.6893 0004402   4.5231 273.6588  1.00271600  4920"}}, "geometry": {"type": "Point", "coordinates": [116.66577672170774, 1.3193081566091887]}}, {"type": "Feature", "properties": {"norad_id": 41589, "name": "EUTELSAT 117 WEST B (WAAS/PRN 131)", "group": "gnss", "lat": 0.01944617041667079, "lon": -110.85104358445267, "alt_km": 35787.00280391762, "timestamp": "2025-12-03T19:33:07.219147+00:00", "meta": {"OBJECT_NAME": "EUTELSAT 117 WEST B (WAAS/PRN 131)", "OBJECT_ID": "2016-038B", "EPOCH": "2025-12-02T23:30:03.060576", "MEAN_MOTION": 1.00267861, "ECCENTRICITY": 1.928e-05, "INCLINATION": 0.0046, "RA_OF_ASC_NODE": 146.1916, "ARG_OF_PERICENTER": 23.0604, "MEAN_ANOMALY": 138.3396, "EPHEMERIS_TYPE": 0, "CLASSIFICATION_TYPE": "U", "NORAD_CAT_ID": 41589, "ELEMENT_SET_NO": 999, "REV_AT_EPOCH": 3469, "BSTAR": 0, "MEAN_MOTION_DOT": 8e-08, "MEAN_MOTION_DDOT": 0}, "tle": {"line1": "1 41589U 16038B   25336.97920209  .00000008  00000+0  00000+0 0  9998", "line2": "2 41589   0.0046 146.1916 0000192  23.0604 138.3396  1.00267861 34690"}}, "geometry": {"type": "Point", "coordinates": [-110.85104358445267, 0.01944617041667079]}}, {"type": "Feature", "properties": {"norad_id": 41859, "name": "GSAT0207 (GALILEO 15)", "group": "gnss", "lat": -48.96250045647433, "lon": -21.031701501983132, "alt_km": 23226.396811543982, "timestamp": "2025-12-03T19:33:07.219159+00:00", "meta": {"OBJECT_NAME": "GSAT0207 (GALILEO 15)", "OBJECT_ID": "2016-069A", "EPOCH": "2025-12-02T19:50:13.202016", "MEAN_MOTION": 1.70474209, "ECCENTRICITY": 0.0002114, "INCLINATION": 55.3769, "RA_OF_ASC_NODE": 106.5249, "ARG_OF_PERICENTER": 324.8964, "MEAN_ANOMALY": 35.0488, "EPHEMERIS_TYPE": 0, "CLASSIFICATION_TYPE": "U", "NORAD_CAT_ID": 41859, "ELEMENT_SET_NO": 999, "REV_AT_EPOCH": 5605, "BSTAR": 0, "MEAN_MOTION_DOT": 2.6e-07, "MEAN_MOTION_DDOT": 0}, "tle": {"line1": "1 41859U 16069A   25336.82654169  .00000026  00000+0  00000+0 0  9995", "line2": "2 41859  55.3769 106.5249 0002114 324.8964  35.0488  1.70474209 56053"}}, "geometry": {"type": "Point", "coordinates": [-21.031701501983132, -48.96250045647433]}}, {"type": "Feature", "properties": {"norad_id": 41860, "name": "GSAT0212 (GALILEO 16)", "group": "gnss", "lat": -19.363015735256415, "lon": 92.4273888883258, "alt_km": 23221.27172882785, "timestamp": "2025-12-03T19:33:07.219170+00:00", "meta": {"OBJECT_NAME": "GSAT0212 (GALILEO 16)", "OBJECT_ID": "2016-069B", "EPOCH": "2025-12-02T16:19:30.905184", "MEAN_MOTION": 1.70474418, "ECCENTRICITY": 0.00022458, "INCLINATION": 55.3738, "RA_OF_ASC_NODE": 106.5243, "ARG_OF_PERICENTER": 34.2432, "MEAN_ANOMALY": 325.7313, "EPHEMERIS_TYPE": 0, "CLASSIFICATION_TYPE": "U", "NORAD_CAT_ID": 41860, "ELEMENT_SET_NO": 999, "REV_AT_EPOCH": 5630, "BSTAR": 0, "MEAN_MOTION_DOT": 2.7e-07, "MEAN_MOTION_DDOT": 0}, "tle": {"line1": "1 41860U 16069B   25336.68021881  .00000027  00000+0  00000+0 0  9991", "line2": "2 41860  55.3738 106.5243 0002245  34.2432 325.7313  1.70474418 56308"}}, "geometry": {"type": "Point", "coordinates": [92.4273888883258, -19.363015735256415]}}, {"type": "Feature", "properties": {"norad_id": 41861, "name": "GSAT0213 (GALILEO 17)", "group": "gnss", "lat": 50.35045516615677, "lon": -129.94956225388765, "alt_km": 23222.23493349301, "timestamp": "2025-12-03T19:33:07.219182+00:00", "meta": {"OBJECT_NAME": "GSAT0213 (GALILEO 17)", "OBJECT_ID": "2016-069C", "EPOCH": "2025-12-01T20:59:28.954752", "MEAN_MOTION": 1.70474717, "ECCENTRICITY": 0.00020626, "INCLINATION": 55.3756, "RA_OF_ASC_NODE": 106.5542, "ARG_OF_PERICENTER": 284.0381, "MEAN_ANOMALY": 75.9044, "EPHEMERIS_TYPE": 0, "CLASSIFICATION_TYPE": "U", "NORAD_CAT_ID": 41861, "ELEMENT_SET_NO": 999, "REV_AT_EPOCH": 5615, "BSTAR": 0, "MEAN_MOTION_DOT": 3.5e-07, "MEAN_MOTION_DDOT": 0}, "tle": {"line1": "1 41861U 16069C   25335.87464068  .00000035  00000+0  00000+0 0  9999", "line2": "2 41861  55.3756 106.5542 0002062 284.0381  75.9044  1.70474717 56156"}}, "geometry": {"type": "Point", "coordinates": [-129.94956225388765, 50.35045516615677]}}, {"type": "Feature", "properties": {"norad_id": 41862, "name": "GSAT0214 (GALILEO 18)", "group": "gnss", "lat": 17.196722537601065, "lon": 118.81300763832127, "alt_km": 23220.100894112486, "timestamp": "2025-12-03T19:33:07.219195+00:00", "meta": {"OBJECT_NAME": "GSAT0214 (GALILEO 18)", "OBJECT_ID": "2016-069D", "EPOCH": "2025-12-02T14:34:22.700352", "MEAN_MOTION": 1.70474512, "ECCENTRICITY": 0.0001109, "INCLINATION": 55.3745, "RA_OF_ASC_NODE": 106.5268, "ARG_OF_PERICENTER": 291.2976, "MEAN_ANOMALY": 68.6511, "EPHEMERIS_TYPE": 0, "CLASSIFICATION_TYPE": "U", "NORAD_CAT_ID": 41862, "ELEMENT_SET_NO": 999, "REV_AT_EPOCH": 5629, "BSTAR": 0, "MEAN_MOTION_DOT": 2.8e-07, "MEAN_MOTION_DDOT": 0}, "tle": {"line1": "1 41862U 16069D   25336.60720718  .00000028  00000+0  00000+0 0  9991", "line2": "2 41862  55.3745 106.5268 0001109 291.2976  68.6511  1.70474512 56297"}}, "geometry": {"type": "Point", "coordinates": [118.81300763832127, 17.196722537601065]}}, {"type": "Feature", "properties": {"norad_id": 42709, "name": "SES-15 (WAAS/PRN 133)", "group": "gnss", "lat": -0.04266729520026234, "lon": -123.04327983142134, "alt_km": 35785.485469289924, "timestamp": "2025-12-03T19:33:07.219206+00:00", "meta": {"OBJECT_NAME": "SES-15 (WAAS/PRN 133)", "OBJECT_ID": "2017-026A", "EPOCH": "2025-12-02T12:16:38.557632", "MEAN_MOTION": 1.00268611, "ECCENTRICITY": 3.415e-05, "INCLINATION": 0.02, "RA_OF_ASC_NODE": 343.4979, "ARG_OF_PERICENTER": 269.9972, "MEAN_ANOMALY": 233.0968, "EPHEMERIS_TYPE": 0, "CLASSIFICATION_TYPE": "U", "NORAD_CAT_ID": 42709, "ELEMENT_SET_NO": 999, "REV_AT_EPOCH": 546, "BSTAR": 0, "MEAN_MOTION_DOT": 8.1e-07, "MEAN_MOTION_DDOT": 0}, "tle": {"line1": "1 42709U 17026A   25336.51155738  .00000081  00000+0  00000+0 0  9999", "line2": "2 42709   0.0200 343.4979 0000341 269.9972 233.0968  1.00268611  5468"}}, "geometry": {"type": "Point", "coordinates": [-123.04327983142134, -0.04266729520026234]}}, {"type": "Feature", "properties": {"norad_id": 42738, "name": "QZS-2 (QZSS/PRN 194)", "group": "gnss", "lat": -39.085468037612024, "lon": 143.3904340901715, "alt_km": 32634.182154372877, "timestamp": "2025-12-03T19:33:07.219219+00:00", "meta": {"OBJECT_NAME": "QZS-2 (QZSS/PRN 194)", "OBJECT_ID": "2017-028A", "EPOCH": "2025-12-02T14:25:21.359424", "MEAN_MOTION": 1.0028572, "ECCENTRICITY": 0.075922, "INCLINATION": 39.7306, "RA_OF_ASC_NODE": 246.0318, "ARG_OF_PERICENTER": 269.3692, "MEAN_ANOMALY": 274.0368, "EPHEMERIS_TYPE": 0, "CLASSIFICATION_TYPE": "U", "NORAD_CAT_ID": 42738, "ELEMENT_SET_NO": 999, "REV_AT_EPOCH": 565, "BSTAR": 0, "MEAN_MOTION_DOT": -1.54e-06, "MEAN_MOTION_DDOT": 0}, "tle": {"line1": "1 42738U 17028A   25336.60094166 -.00000154  00000+0  00000+0 0  9992", "line2": "2 42738  39.7306 246.0318 0759220 269.3692 274.0368  1.00285720  5651"}}, "geometry": {"type": "Point", "coordinates": [143.3904340901715, -39.085468037612024]}}]}